249P/LINEAR,e,8.3868,239.0841,65.7319,2.763651,0.2145256,0.81971806,194.9126,12/25.0/2022,2000,g 15.5,4.0
# From MPC110497
250P/Larson,e,13.1514,73.3650,46.0970,3.768501,0.1347259,0.39894527,242.1344,12/25.0/2022,2000,g 14.5,4.0
# From MPC104795
251P/LINEAR,e,23.3863,219.3461,31.2600,3.512865,0.1496966,0.50450616,297.8346,12/25.0/2022,2000,g 16.5,2.0
# From MPEC 2021-S45
252P/LINEAR,e,10.4133,190.9156,343.3927,3.050925,0.1849511,0.67130254,98.3807,12/25.0/2022,2000,g 17.5,4.0
# From MPEC 2020-FB5
253P/PANSTARRS,e,4.9434,146.8796,230.7095,3.464489,0.1528429,0.41455634,258.2361,12/25.0/2022,2000,g 14.5,4.0
# From MPEC 2022-YB4
254P/McNaught,e,32.5665,129.1843,219.6532,4.615628,0.0993935,0.31967737,81.0717,12/25.0/2022,2000,g 11.0,4.0
# From MPEC 2021-UA9
255P/Levy,e,13.4109,275.6630,186.0113,2.942079,0.1953091,0.71152923,21.2308,12/25.0/2022,2000,g 14.1,4.0
# From MPEC 2022-C56
256P/LINEAR,e,27.6189,81.3323,124.1978,4.639585,0.0986246,0.41798680,352.3804,12/25.0/2022,2000,g 14.0,2.0
# From MPEC 2021-Y10
257P/Catalina,e,20.2198,207.7165,117.7572,3.764149,0.1349596,0.43004284,112.7385,12/25.0/2022,2000,g 11.5,4.0
# From MPEC 2021-U31
258P/PANSTARRS,e,6.7469,126.2375,25.7694,4.394274,0.1069974,0.20844414,98.4918,12/25.0/2022,2000,g 13.0,4.0
# From MPC106349
259P/Garradd,e,15.8960,51.4308,257.5680,2.729816,0.2185264,0.33886935,69.8782,12/25.0/2022,2000,g 15.5,4.0
# From MPEC 2022-O01
260P/McNaught,e,15.0568,349.3369,18.4439,3.623265,0.1429071,0.60935979,171.6592,12/25.0/2022,2000,g 13.5,4.0
# From MPEC 2021-J28
261P/Larson,e,6.0722,291.1148,67.2599,3.490474,0.1511393,0.42334058,194.1031,12/25.0/2022,2000,g 14.0,4.0
# From MPC 82322
262P/McNaught-Russell,e,29.2881,217.8638,171.0555,6.871654,0.0547157,0.81630002,200.8681,12/25.0/2022,2000,g 13.5,4.0
# From MPEC 2022-YB4
263P/Gibbs,e,11.5220,105.5112,35.0401,3.041727,0.1857906,0.59355168,353.2035,12/25.0/2022,2000,g 18.0,4.0
# From MPC114608
264P/Larsen,e,25.4383,220.1279,346.7049,3.883696,0.1287764,0.37655177,159.6502,12/25.0/2022,2000,g 13.0,4.0
# From MPC 79870
265P/LINEAR,e,14.3629,342.9270,33.4837,4.256304,0.1122419,0.64762335,76.7520,12/25.0/2022,2000,g 14.5,4.0
# From MPEC 2021-F20
266P/Christensen,e,3.4270,4.9940,97.6736,3.531470,0.1485152,0.33990975,145.4955,12/25.0/2022,2000,g 14.7,4.0
# From MPC114608
267P/LONEOS,e,6.1434,228.5686,114.2383,3.210685,0.1713198,0.61439023,276.6128,12/25.0/2022,2000,g 19.5,4.0
# From MPC 92277
268P/Bernardi,e,15.7227,126.4375,359.8125,4.582025,0.1004888,0.47713340,287.1478,12/25.0/2022,2000,g 14.0,4.0
# From MPC104795
269P/Jedicke,e,7.0807,241.7459,225.6976,7.068719,0.0524437,0.43155743,157.7518,12/25.0/2022,2000,g 10.0,4.0
# From MPC 88332
270P/Gehrels,e,2.9241,223.0315,209.7642,6.658746,0.0573608,0.46899262,199.8393,12/25.0/2022,2000,g  8.0,4.0
# From MPC 92277
271P/van Houten-Lemmon,e,6.8722,9.3178,36.4150,7.036253,0.0528070,0.39568246,182.0074,12/25.0/2022,2000,g 11.0,4.0
# From MPEC 2022-C56
272P/NEAT,e,18.0730,109.4656,27.8926,4.461389,0.1045921,0.45484824,16.8364,12/25.0/2022,2000,g 16.0,2.0
# From MPC 82723
273P/Pons-Gambart,e,136.6953,320.3948,20.3031,31.97337,0.0054516,0.97434800,0.0000,12/21.4727/2012,2000,g 11.5,4.0
# From MPEC 2022-M21
274P/Tombaugh-Tenagra,e,15.8153,81.3310,38.4709,4.377036,0.1076302,0.43956596,28.0420,12/25.0/2022,2000,g 13.0,4.0
# From MPC 81862
275P/Hermann,e,21.2718,348.7550,173.9601,5.779121,0.0709433,0.71289884,260.3072,12/25.0/2022,2000,g 17.0,4.0
# From MPEC 2022-TA0
276P/Vorobjov,e,14.8109,211.3494,199.4916,5.325375,0.0802008,0.26798942,302.3479,12/25.0/2022,2000,g 11.5,4.0
# From MPEC 2021-F20
277P/LINEAR,e,16.7786,276.3078,152.3312,3.853437,0.1302962,0.50613320,94.4170,12/25.0/2022,2000,g 15.1,4.0
# From MPEC 2021-S45
278P/McNaught,e,6.6966,15.3827,237.6297,3.683066,0.1394408,0.43673102,116.3544,12/25.0/2022,2000,g 14.0,4.0
# From MPEC 2022-K19
279P/LaSagra,e,5.0525,346.2324,5.8626,3.573141,0.1459247,0.39881799,343.1318,12/25.0/2022,2000,g 14.0,4.0
# From MPEC 2022-K19
280P/Larsen,e,11.7724,131.3894,104.7335,4.530127,0.1022206,0.41722374,337.2369,12/25.0/2022,2000,g 12.5,4.0
# From MPEC 2021-W31
281P/MOSS,e,4.7183,87.1796,26.6545,4.877284,0.0915034,0.17280334,356.4711,12/25.0/2022,2000,g 11.0,4.0
# From MPC133426
282P/,e,5.8117,9.2968,217.6167,4.238312,0.1129574,0.18807992,48.1775,12/25.0/2022,2000,g 13.5,2.0
# From MPEC 2022-K19
283P/Spacewatch,e,14.4554,161.1279,22.2188,4.135656,0.1171892,0.48446002,55.4439,12/25.0/2022,2000,g 16.0,2.0
# From MPEC 2022-YB4
284P/McNaught,e,11.8611,144.2624,202.4277,3.676089,0.1398380,0.37538156,65.5043,12/25.0/2022,2000,g 13.0,4.0
# From MPEC 2022-Y15
285P/LINEAR,e,25.0384,185.5068,178.4237,4.510535,0.1028874,0.61881385,358.1193,12/25.0/2022,2000,g 15.0,4.0
# From MPEC 2022-X67
286P/Christensen,e,17.0382,283.9059,24.9020,4.114589,0.1180904,0.42625089,26.7272,12/25.0/2022,2000,g 14.0,4.0
# From MPEC 2022-QD9
287P/Christensen,e,16.3215,139.0431,189.0986,4.163554,0.1160133,0.27119811,337.6137,12/25.0/2022,2000,g 13.5,4.0
# From MPC133426
288P/,e,3.2383,83.1233,280.2020,3.048237,0.1851957,0.20055583,55.2540,12/25.0/2022,2000,g 16.0,2.0
# From MPEC 2022-K19
289P/Blanpain,e,5.8988,68.8862,9.8391,3.045541,0.1854417,0.68599709,203.9469,12/25.0/2022,2000,g 19.0,4.0
# From MPC 95214
290P/Jager,e,20.0379,302.6694,181.8513,6.217025,0.0635814,0.62728156,207.1590,12/25.0/2022,2000,g 10.5,4.0
# From MPEC 2022-Y15
291P/NEAT,e,6.3049,237.6760,173.5357,4.543441,0.1017716,0.43543458,346.7502,12/25.0/2022,2000,g 13.0,4.0
# From MPEC 2022-K19
292P/Li,e,24.2909,90.9277,319.5259,6.102202,0.0653844,0.58955204,212.2536,12/25.0/2022,2000,g 12.5,4.0
# From MPEC 2022-L66
293P/Spacewatch,e,9.0597,78.3982,40.9543,3.641000,0.1418643,0.41842192,104.3945,12/25.0/2022,2000,g 14.5,4.0
# From MPEC 2020-SI8
294P/LINEAR,e,17.8567,311.2579,236.2307,3.186261,0.1732934,0.60350186,193.6592,12/25.0/2022,2000,g 15.5,4.0
# From MPEC 2022-K19
295P/LINEAR,e,21.0741,7.4372,72.8837,5.305070,0.0806617,0.61701012,254.6354,12/25.0/2022,2000,g 12.0,4.0
# From MPEC 2021-N06
296P/Garradd,e,25.2445,263.5574,349.9975,3.492267,0.1510229,0.47882798,125.1291,12/25.0/2022,2000,g 14.0,4.0
# From MPC102956
297P/Beshore,e,10.2920,96.8629,134.2148,3.462689,0.1529621,0.32109875,106.6544,12/25.0/2022,2000,g 15.0,4.0
# From MPC114609
298P/Christensen,e,7.8707,52.8206,100.6293,3.590198,0.1448860,0.38624586,121.7189,12/25.0/2022,2000,g 15.0,4.0
# From MPEC 2022-V95
299P/Catalina-PANSTARRS,e,10.4678,271.6047,323.7714,4.388057,0.1072249,0.28092850,307.1553,12/25.0/2022,2000,g 11.5,4.0
# From MPEC 2022-ED3
300P/Catalina,e,5.6740,95.6250,222.9494,2.698837,0.2222997,0.69168847,336.1894,12/25.0/2022,2000,g 16.0,4.0
# From MPC 89014
301P/LINEAR-NEAT,e,10.3385,351.1717,193.5651,5.740623,0.0716581,0.58539838,218.4382,12/25.0/2022,2000,g 13.0,4.0
# From MPEC 2022-K19
302P/Lemmon-PANSTARRS,e,6.0335,121.7342,208.4672,4.273200,0.1115769,0.23026726,270.2413,12/25.0/2022,2000,g 12.5,4.0
# From MPC 92278
303P/NEAT,e,7.0204,347.9672,356.9787,5.043924,0.0870064,0.51091257,259.7501,12/25.0/2022,2000,g 13.5,4.0
# From MPEC 2022-K19
304P/Ory,e,2.6074,58.9084,335.2622,3.150707,0.1762349,0.60092414,152.2865,12/25.0/2022,2000,g 16.5,4.0
# From MPC101100
305P/Skiff,e,11.6668,240.1021,147.3646,4.640329,0.0986009,0.69396107,291.6606,12/25.0/2022,2000,g 18.0,4.0
# From MPC 92278
306P/LINEAR,e,8.3094,341.3737,0.8844,3.124084,0.1784925,0.59317189,190.4109,12/25.0/2022,2000,g 19.0,4.0
# From MPC 92278
307P/LINEAR,e,4.4354,158.1655,222.1595,5.789659,0.0707497,0.67552763,206.6975,12/25.0/2022,2000,g 15.0,4.0
# From MPEC 2022-C56
308P/Lagerkvist-Carsenty,e,4.8543,63.0422,333.6588,6.599895,0.0581298,0.36455969,161.8975,12/25.0/2022,2000,g 13.0,2.0
# From MPC 94284
309P/LINEAR,e,17.0238,10.1457,49.9417,4.373036,0.1077778,0.61817543,310.4107,12/25.0/2022,2000,g 15.0,4.0
# From MPEC 2022-QD9
310P/Hill,e,13.1279,8.9205,31.7351,4.182737,0.1152161,0.42241307,325.0784,12/25.0/2022,2000,g 13.5,4.0
# From MPEC 2021-BE3
311P/PANSTARRS,e,4.9701,279.2125,144.5092,2.188158,0.3044991,0.11589578,246.2226,12/25.0/2022,2000,g 17.0,4.0
# From MPEC 2021-BE3
312P/NEAT,e,19.7644,144.6712,207.6492,3.469444,0.1525156,0.42773700,125.1827,12/25.0/2022,2000,g 16.0,4.0
# From MPEC 2021-S45
313P/Gibbs,e,10.9790,105.9566,254.8482,3.163996,0.1751258,0.23497873,172.1314,12/25.0/2022,2000,g 15.0,4.0
# From MPC105243
314P/Montani,e,3.9856,267.6062,213.9339,7.258295,0.0504025,0.41671574,114.3847,12/25.0/2022,2000,g  9.5,4.0
# From MPEC 2021-N06
315P/LONEOS,e,17.7360,68.7751,65.7396,4.940047,0.0897651,0.52100001,199.3804,12/25.0/2022,2000,g 11.0,4.0
# From MPC 92279
316P/LONEOS-Christensen,e,9.8257,246.2724,191.8338,4.384241,0.1073649,0.15594359,286.4569,12/25.0/2022,2000,g 13.5,4.0
# From MPEC 2020-C98
317P/WISE,e,11.9533,275.4838,334.8360,2.962447,0.1932984,0.57055809,158.5263,12/25.0/2022,2000,g 17.5,4.0
# From MPC102103
318P/McNaught-Hartley,e,17.8885,35.5072,313.3253,7.504413,0.0479434,0.67510784,125.4562,12/25.0/2022,2000,g  8.5,6.0
# From MPC 97499
319P/Catalina-McNaught,e,15.0954,111.3616,203.6641,3.565380,0.1464014,0.66657466,39.3228,12/25.0/2022,2000,g 15.0,4.0
# From MPC 96281
320P/McNaught,e,4.9059,295.9460,0.7859,3.094251,0.1810801,0.68528807,128.0351,12/25.0/2022,2000,g 20.5,4.0
# From MPC105243
321P/SOHO,e,20.0869,165.0180,172.7476,2.423192,0.2612898,0.98108865,0.0000,10/26.5926/2023,2000,g 20.0,4.0
# From MPC102103
322P/SOHO,e,11.4662,351.5115,56.8987,2.507615,0.2482064,0.97996685,0.0000,08/21.0839/2023,2000,g 19.0,4.0
# From MPEC 2016-Y36
323P/SOHO,e,5.3233,324.4033,353.0379,2.583271,0.2373827,0.98476693,0.0000,01/17.8557/2021,2000,g 20.0,4.0
# From MPEC 2021-W31
324P/LaSagra,e,21.4037,270.5851,57.5391,3.094536,0.1810551,0.15370238,108.4306,12/25.0/2022,2000,g 13.0,4.0
# From MPEC 2022-TA0
325P/Yang-Gao,e,16.6931,257.5303,343.7754,3.525077,0.1489194,0.59350424,40.3203,12/25.0/2022,2000,g 14.0,4.0
# From MPC103849
326P/Hill,e,2.4711,99.8089,278.6512,4.062653,0.1203620,0.31826793,315.4025,12/25.0/2022,2000,g 13.5,4.0
# From MPEC 2022-YB4
